{"type": "FeatureCollection", "features": [ {"type": "Feature", "properties": {"norad_id": 40115, "name": "WORLDVIEW-3 (WV-3)", "group": "resource", "lat": 16.259191807790607, "lon": -124.72464102698824, "alt_km": 610.5330210662923, "timestamp": "2025-12-06T14:35:36.784566+00:00", "meta": {"OBJECT_NAME": "WORLDVIEW-3 (WV-3)", "OBJECT_ID": "2014-048A", "EPOCH": "2025-12-06T05:46:35.992704", "MEAN_MOTION": 14.85487032, "ECCENTRICITY": 0.00042965, "INCLINATION": 97.8623, "RA_OF_ASC_NODE": 52.6029, "ARG_OF_PERICENTER": 207.3776, "MEAN_ANOMALY": 152.7213, "EPHEMERIS_TYPE": 0, "CLASSIFICATION_TYPE": "U", "NORAD_CAT_ID": 40115, "ELEMENT_SET_NO": 999, "REV_AT_EPOCH": 61327, "BSTAR": 0.0002883566, "MEAN_MOTION_DOT": 2.435e-05, "MEAN_MOTION_DDOT": 0}, "tle": {"line1": "1 40115U 14048A   25340.24069436  .00002435  00000+0  28836-3 0  9999", "line2": "2 40115  97.8623  52.6029 0004296 207.3776 152.7213 14.85487032613277"}}, "geometry": {"type": "Point", "coordinates": [-124.72464102698824, 16.259191807790607]}}, {"type": "Feature", "properties": {"norad_id": 40118, "name": "GAOFEN-2", "group": "resource", "lat": 81.85837511795174, "lon": -41.32764271965866, "alt_km": 615.6190314783325, "timestamp": "2025-12-06T14:35:36.784576+00:00", "meta": {"OBJECT_NAME": "GAOFEN-2", "OBJECT_ID": "2014-049A", "EPOCH": "2025-12-06T07:42:23.263776", "MEAN_MOTION": 14.80591267, "ECCENTRICITY": 0.00083624, "INCLINATION": 98.0394, "RA_OF_ASC_NODE": 39.4782, "ARG_OF_PERICENTER": 131.4349, "MEAN_ANOMALY": 228.7583, "EPHEMERIS_TYPE": 0, "CLASSIFICATION_TYPE": "U", "NORAD_CAT_ID": 40118, "ELEMENT_SET_NO": 999, "REV_AT_EPOCH": 61069, "BSTAR": 0.00021266691, "MEAN_MOTION_DOT": 1.579e-05, "MEAN_MOTION_DDOT": 0}, "tle": {"line1": "1 40118U 14049A   25340.32110259  .00001579  00000+0  21267-3 0  9991", "line2": "2 40118  98.0394  39.4782 0008362 131.4349 228.7583 14.80591267610696"}}, "geometry": {"type": "Point", "coordinates": [-41.32764271965866, 81.85837511795174]}}, {"type": "Feature", "properties": {"norad_id": 40143, "name": "YAOGAN-21", "group": "resource", "lat": -4.626912609692067, "lon": -156.3964103438544, "alt_km": 502.67298351276804, "timestamp": "2025-12-06T14:35:36.784587+00:00", "meta": {"OBJECT_NAME": "YAOGAN-21", "OBJECT_ID": "2014-053A", "EPOCH": "2025-12-06T07:28:54.783552", "MEAN_MOTION": 15.23562764, "ECCENTRICITY": 0.0010146, "INCLINATION": 97.1761, "RA_OF_ASC_NODE": 23.9044, "ARG_OF_PERICENTER": 61.4977, "MEAN_ANOMALY": 298.7282, "EPHEMERIS_TYPE": 0, "CLASSIFICATION_TYPE": "U", "NORAD_CAT_ID": 40143, "ELEMENT_SET_NO": 999, "REV_AT_EPOCH": 62556, "BSTAR": 0.00048846929, "MEAN_MOTION_DOT": 0.00011636, "MEAN_MOTION_DDOT": 0}, "tle": {"line1": "1 40143U 14053A   25340.31174518  .00011636  00000+0  48847-3 0  9999", "line2": "2 40143  97.1761  23.9044 0010146  61.4977 298.7282 15.23562764625566"}}, "geometry": {"type": "Point", "coordinates": [-156.3964103438544, -4.626912609692067]}}, {"type": "Feature", "properties": {"norad_id": 40275, "name": "YAOGAN-22", "group": "resource", "lat": -71.49837934042961, "lon": 158.4998776067455, "alt_km": 1204.9092448354604, "timestamp": "2025-12-06T14:35:36.784597+00:00", "meta": {"OBJECT_NAME": "YAOGAN-22", "OBJECT_ID": "2014-063A", "EPOCH": "2025-12-06T04:01:18.546528", "MEAN_MOTION": 13.15522513, "ECCENTRICITY": 0.00059072, "INCLINATION": 100.7419, "RA_OF_ASC_NODE": 123.4944, "ARG_OF_PERICENTER": 264.1274, "MEAN_ANOMALY": 95.9164, "EPHEMERIS_TYPE": 0, "CLASSIFICATION_TYPE": "U", "NORAD_CAT_ID": 40275, "ELEMENT_SET_NO": 999, "REV_AT_EPOCH": 53443, "BSTAR": 5.092346e-05, "MEAN_MOTION_DOT": -2.7e-07, "MEAN_MOTION_DDOT": 0}, "tle": {"line1": "1 40275U 14063A   25340.16757577 -.00000027  00000+0  50923-4 0  9993", "line2": "2 40275 100.7419 123.4944 0005907 264.1274  95.9164 13.15522513534437"}}, "geometry": {"type": "Point", "coordinates": [158.4998776067455, -71.49837934042961]}}, {"type": "Feature", "properties": {"norad_id": 40298, "name": "ASNARO", "group": "resource", "lat": -34.461004023737864, "lon": 61.799571357274274, "alt_km": 517.8616043634347, "timestamp": "2025-12-06T14:35:36.784607+00:00", "meta": {"OBJECT_NAME": "ASNARO", "OBJECT_ID": "2014-070A", "EPOCH": "2025-12-06T06:50:35.106720", "MEAN_MOTION": 15.19293223, "ECCENTRICITY": 0.00052842, "INCLINATION": 97.3664, "RA_OF_ASC_NODE": 56.3909, "ARG_OF_PERICENTER": 140.2244, "MEAN_ANOMALY": 219.9379, "EPHEMERIS_TYPE": 0, "CLASSIFICATION_TYPE": "U", "NORAD_CAT_ID": 40298, "ELEMENT_SET_NO": 999, "REV_AT_EPOCH": 61471, "BSTAR": 0.00085438374, "MEAN_MOTION_DOT": 0.00017999, "MEAN_MOTION_DDOT": 0}, "tle": {"line1": "1 40298U 14070A   25340.28512855  .00017999  00000+0  85438-3 0  9990", "line2": "2 40298  97.3664  56.3909 0005284 140.2244 219.9379 15.19293223614714"}}, "geometry": {"type": "Point", "coordinates": [61.799571357274274, -34.461004023737864]}}, {"type": "Feature", "properties": {"norad_id": 40310, "name": "YAOGAN-24", "group": "resource", "lat": 9.549181768717208, "lon": -66.95435576048396, "alt_km": 633.2917780460057, "timestamp": "2025-12-06T14:35:36.784617+00:00", "meta": {"OBJECT_NAME": "YAOGAN-24", "OBJECT_ID": "2014-072A", "EPOCH": "2025-12-06T07:19:04.676736", "MEAN_MOTION": 14.76156482, "ECCENTRICITY": 0.00144438, "INCLINATION": 98.1224, "RA_OF_ASC_NODE": 111.3643, "ARG_OF_PERICENTER": 157.8963, "MEAN_ANOMALY": 202.2872, "EPHEMERIS_TYPE": 0, "CLASSIFICATION_TYPE": "U", "NORAD_CAT_ID": 40310, "ELEMENT_SET_NO": 999, "REV_AT_EPOCH": 59526, "BSTAR": 0.00030939984, "MEAN_MOTION_DOT": 2.089e-05, "MEAN_MOTION_DDOT": 0}, "tle": {"line1": "1 40310U 14072A   25340.30491524  .00002089  00000+0  30940-3 0  9991", "line2": "2 40310  98.1224 111.3643 0014443 157.8963 202.2872 14.76156482595264"}}, "geometry": {"type": "Point", "coordinates": [-66.95435576048396, 9.549181768717208]}}, {"type": "Feature", "properties": {"norad_id": 40336, "name": "CBERS 4", "group": "resource", "lat": 81.03459242900992, "lon": -29.428519069912387, "alt_km": 765.0225621631262, "timestamp": "2025-12-06T14:35:36.784627+00:00", "meta": {"OBJECT_NAME": "CBERS 4", "OBJECT_ID": "2014-079A", "EPOCH": "2025-12-06T07:29:59.625024", "MEAN_MOTION": 14.35514204, "ECCENTRICITY": 0.0001504, "INCLINATION": 98.3319, "RA_OF_ASC_NODE": 38.5491, "ARG_OF_PERICENTER": 121.5229, "MEAN_ANOMALY": 238.6104, "EPHEMERIS_TYPE": 0, "CLASSIFICATION_TYPE": "U", "NORAD_CAT_ID": 40336, "ELEMENT_SET_NO": 999, "REV_AT_EPOCH": 57628, "BSTAR": 0.00013544857, "MEAN_MOTION_DOT": 3.48e-06, "MEAN_MOTION_DDOT": 0}, "tle": {"line1": "1 40336U 14079A   25340.31249566  .00000348  00000+0  13545-3 0  9992", "line2": "2 40336  98.3319  38.5491 0001504 121.5229 238.6104 14.35514204576284"}}, "geometry": {"type": "Point", "coordinates": [-29.428519069912387, 81.03459242900992]}}, {"type": "Feature", "properties": {"norad_id": 40362, "name": "YAOGAN-26", "group": "resource", "lat": -79.86236938109508, "lon": 25.410161580306063, "alt_km": 459.49785080778565, "timestamp": "2025-12-06T14:35:36.784638+00:00", "meta": {"OBJECT_NAME": "YAOGAN-26", "OBJECT_ID": "2014-088A", "EPOCH": "2025-12-06T07:09:00.110880", "MEAN_MOTION": 15.38963066, "ECCENTRICITY": 0.00069586, "INCLINATION": 97.0638, "RA_OF_ASC_NODE": 341.2026, "ARG_OF_PERICENTER": 47.7339, "MEAN_ANOMALY": 312.4497, "EPHEMERIS_TYPE": 0, "CLASSIFICATION_TYPE": "U", "NORAD_CAT_ID": 40362, "ELEMENT_SET_NO": 999, "REV_AT_EPOCH": 60795, "BSTAR": 0.00079244781, "MEAN_MOTION_DOT": 0.0003059, "MEAN_MOTION_DDOT": 0}, "tle": {"line1": "1 40362U 14088A   25340.29791795  .00030590  00000+0  79245-3 0  9995", "line2": "2 40362  97.0638 341.2026 0006958  47.7339 312.4497 15.38963066607953"}}, "geometry": {"type": "Point", "coordinates": [25.410161580306063, -79.86236938109508]}}, {"type": "Feature", "properties": {"norad_id": 40376, "name": "SMAP", "group": "resource", "lat": 35.771282603367965, "lon": -20.490305826247642, "alt_km": 679.4384206163613, "timestamp": "2025-12-06T14:35:36.784649+00:00", "meta": {"OBJECT_NAME": "SMAP", "OBJECT_ID": "2015-003A", "EPOCH": "2025-12-06T06:13:24.123936", "MEAN_MOTION": 14.63332614, "ECCENTRICITY": 0.00012104, "INCLINATION": 98.129, "RA_OF_ASC_NODE": 345.0766, "ARG_OF_PERICENTER": 87.5371, "MEAN_ANOMALY": 272.597, "EPHEMERIS_TYPE": 0, "CLASSIFICATION_TYPE": "U", "NORAD_CAT_ID": 40376, "ELEMENT_SET_NO": 999, "REV_AT_EPOCH": 57940, "BSTAR": 0.00023153845, "MEAN_MOTION_DOT": 1.149e-05, "MEAN_MOTION_DDOT": 0}, "tle": {"line1": "1 40376U 15003A   25340.25930699  .00001149  00000+0  23154-3 0  9998", "line2": "2 40376  98.1290 345.0766 0001210  87.5371 272.5970 14.63332614579407"}}, "geometry": {"type": "Point", "coordinates": [-20.490305826247642, 35.771282603367965]}}, {"type": "Feature", "properties": {"norad_id": 40536, "name": "KOMPSAT-3A", "group": "resource", "lat": 63.65388370435274, "lon": 150.42602158038775, "alt_km": 426.67032454537275, "timestamp": "2025-12-06T14:35:36.784659+00:00", "meta": {"OBJECT_NAME": "KOMPSAT-3A", "OBJECT_ID": "2015-014A", "EPOCH": "2025-12-06T04:45:40.655808", "MEAN_MOTION": 15.43594202, "ECCENTRICITY": 0.00041795, "INCLINATION": 97.6782, "RA_OF_ASC_NODE": 314.1853, "ARG_OF_PERICENTER": 141.1887, "MEAN_ANOMALY": 218.9661, "EPHEMERIS_TYPE": 0, "CLASSIFICATION_TYPE": "U", "NORAD_CAT_ID": 40536, "ELEMENT_SET_NO": 999, "REV_AT_EPOCH": 59194, "BSTAR": 0.00062858467, "MEAN_MOTION_DOT": 0.00028242, "MEAN_MOTION_DDOT": 0}, "tle": {"line1": "1 40536U 15014A   25340.19838722  .00028242  00000+0  62858-3 0  9992", "line2": "2 40536  97.6782 314.1853 0004179 141.1887 218.9661 15.43594202591941"}}, "geometry": {"type": "Point", "coordinates": [150.42602158038775, 63.65388370435274]}}]}